0 FENGYUN 1C DEB
1 31709U 99025CDG 13284.31679723  .00002390  00000-0  15339-2 0  5343
2 31709 098.0315 329.3198 0208430 054.9294 307.1031 13.93904470314242
0 FENGYUN 1C DEB
1 31709U 99025CDG 13287.33154987  .00002391  00000-0  15347-2 0  5359
2 31709 098.0312 331.9411 0208259 046.4850 315.3434 13.93919122314663
0 FENGYUN 1C DEB
1 31709U 99025CDG 13289.34136034  .00002418  00000-0  15515-2 0  5363
2 31709 098.0339 333.6978 0208236 040.8542 320.8203 13.93929559314941
0 FENGYUN 1C DEB
1 31709U 99025CDG 13291.35114958  .00002481  00000-0  15910-2 0  5378
2 31709 098.0340 335.4499 0208331 034.7590 326.7359 13.93941184315229
0 FENGYUN 1C DEB
1 31709U 99025CDG 13293.36091461  .00002553  00000-0  16388-2 0  5385
2 31709 098.0343 337.1981 0207570 029.1053 332.2048 13.93953469315500
0 FENGYUN 1C DEB
1 31709U 99025CDG 13294.93999689  .00002577  00000-0  16565-2 0  5392
2 31709 098.0403 338.5850 0206471 025.6687 335.4799 13.93962197315720
0 FENGYUN 1C DEB
1 31709U 99025CDG 13295.37065190  .00002789  00000-0  17908-2 0  5401
2 31709 098.0327 338.9395 0206580 023.7414 337.3800 13.93969526315784
